[{"OBJECT_NAME":"STARLINK-5487","OBJECT_ID":"2023-021AA","EPOCH":"2026-03-09T16:39:13.019616","MEAN_MOTION":14.98333844,"ECCENTRICITY":0.00031461,"INCLINATION":70.0013,"RA_OF_ASC_NODE":184.3814,"ARG_OF_PERICENTER":267.4295,"MEAN_ANOMALY":92.6504,"EPHEMERIS_TYPE":0,"CLASSIFICATION_TYPE":"U","NORAD_CAT_ID":55652,"ELEMENT_SET_NO":999,"REV_AT_EPOCH":16879,"BSTAR":3.2877177e-5,"MEAN_MOTION_DOT":2.99e-6,"MEAN_MOTION_DDOT":0},{"OBJECT_NAME":"PEGASUS DEB","OBJECT_ID":"1994-029YH","EPOCH":"2026-03-09T13:48:40.247712","MEAN_MOTION":13.39711213,"ECCENTRICITY":0.0728479,"INCLINATION":81.5431,"RA_OF_ASC_NODE":97.4781,"ARG_OF_PERICENTER":287.3771,"MEAN_ANOMALY":203.8925,"EPHEMERIS_TYPE":0,"CLASSIFICATION_TYPE":"U","NORAD_CAT_ID":24581,"ELEMENT_SET_NO":999,"REV_AT_EPOCH":42256,"BSTAR":0.0015334,"MEAN_MOTION_DOT":4.131e-5,"MEAN_MOTION_DDOT":0}]
